[{"OBJECT_NAME":"YAOGAN-24","OBJECT_ID":"2014-072A","EPOCH":"2026-03-09T23:33:58.619808","MEAN_MOTION":14.76230497,"ECCENTRICITY":0.00123495,"INCLINATION":98.131,"RA_OF_ASC_NODE":205.5775,"ARG_OF_PERICENTER":217.5868,"MEAN_ANOMALY":142.4479,"EPHEMERIS_TYPE":0,"CLASSIFICATION_TYPE":"U","NORAD_CAT_ID":40310,"ELEMENT_SET_NO":999,"REV_AT_EPOCH":60908,"BSTAR":0.00015342398,"MEAN_MOTION_DOT":1.01e-5,"MEAN_MOTION_DDOT":0},{"OBJECT_NAME":"FENGYUN 1C DEB","OBJECT_ID":"1999-025BWL","EPOCH":"2026-03-04T05:24:47.357568","MEAN_MOTION":14.39361247,"ECCENTRICITY":0.01689826,"INCLINATION":98.3806,"RA_OF_ASC_NODE":49.9431,"ARG_OF_PERICENTER":97.9546,"MEAN_ANOMALY":329.9541,"EPHEMERIS_TYPE":0,"CLASSIFICATION_TYPE":"U","NORAD_CAT_ID":31497,"ELEMENT_SET_NO":999,"REV_AT_EPOCH":98727,"BSTAR":0.000269432,"MEAN_MOTION_DOT":9.43e-6,"MEAN_MOTION_DDOT":0}]
